[{"id":"1","name_es":"Nogales","name_en":"Nogales","lat":"31.340377","long":"-110.934253","key":"nogales","total":"241"},{"id":"2","name_es":"Douglas","name_en":"Douglas","lat":"31.344547","long":"-109.545345","key":"douglas","total":"104"},{"id":"3","name_es":"Phoenix","name_en":"Phoenix","lat":"33.448377","long":"-112.074037","key":"phoenix","total":"33850"},{"id":"4","name_es":"Tucson","name_en":"Tucson","lat":"32.221743","long":"-110.926479","key":"tucson","total":"3069"},{"id":"5","name_es":"Denver","name_en":"Denver","lat":"39.737567","long":"-104.984718","key":"denver","total":"19946"},{"id":"6","name_es":"Yuma","name_en":"Yuma","lat":"32.692651","long":"-114.627692","key":"yuma","total":"1020"},{"id":"7","name_es":"Cal\u00e9xico","name_en":"Calexico","lat":"32.678948","long":"-115.498883","key":"calexico","total":"196"},{"id":"8","name_es":"San Diego","name_en":"San Diego","lat":"32.715329","long":"-117.157255","key":"san_diego","total":"20207"},{"id":"9","name_es":"Santa Ana","name_en":"Santa Ana","lat":"33.745573","long":"-117.867834","key":"santa_ana","total":"51901"},{"id":"10","name_es":"San Bernardino","name_en":"San Bernardino","lat":"34.108345","long":"-117.289765","key":"san_bernardino","total":"33360"},{"id":"11","name_es":"Los \u00c1ngeles","name_en":"Los Angeles","lat":"34.052234","long":"-118.243685","key":"los_angeles","total":"129237"},{"id":"12","name_es":"Oxnard","name_en":"Oxnard","lat":"34.197505","long":"-119.177052","key":"oxnard","total":"26277"},{"id":"13","name_es":"San Jos\u00e9","name_en":"San Jose","lat":"37.339386","long":"-121.894955","key":"san_jose","total":"28553"},{"id":"14","name_es":"Fresno","name_en":"Fresno","lat":"36.746842","long":"-119.772587","key":"fresno","total":"21176"},{"id":"15","name_es":"Sacramento","name_en":"Sacramento","lat":"38.581572","long":"-121.4944","key":"sacramento","total":"27699"},{"id":"16","name_es":"Las Vegas","name_en":"Las Vegas","lat":"36.114646","long":"-115.172816","key":"las_vegas","total":"27700"},{"id":"17","name_es":"San Francisco","name_en":"San Francisco","lat":"37.774929","long":"-122.419416","key":"san_francisco","total":"39625"},{"id":"18","name_es":"El Paso","name_en":"El Paso","lat":"31.75872","long":"-106.486931","key":"el_paso","total":"4620"},{"id":"19","name_es":"Albuquerque","name_en":"Albuquerque","lat":"35.110703","long":"-106.609991","key":"albuquerque","total":"9628"},{"id":"20","name_es":"Presidio","name_en":"Presidio","lat":"29.560738","long":"-104.372146","key":"presidio","total":"451"},{"id":"21","name_es":"Del R\u00edo","name_en":"Del Rio","lat":"29.370886","long":"-100.895867","key":"del_rio","total":"242"},{"id":"22","name_es":"Eagle Pass","name_en":"Eagle Pass","lat":"28.709143","long":"-100.499521","key":"eagle_pass","total":"111"},{"id":"23","name_es":"Laredo","name_en":"Laredo","lat":"27.506407","long":"-99.507542","key":"laredo","total":"2029"},{"id":"24","name_es":"San Antonio","name_en":"San Antonio","lat":"29.424122","long":"-98.493628","key":"san_antonio","total":"13489"},{"id":"25","name_es":"Austin","name_en":"Austin","lat":"30.267153","long":"-97.743061","key":"austin","total":"15659"},{"id":"26","name_es":"Houston","name_en":"Houston","lat":"29.760193","long":"-95.36939","key":"houston","total":"45227"},{"id":"27","name_es":"Dallas","name_en":"Dallas","lat":"32.78014","long":"-96.800451","key":"dallas","total":"58023"},{"id":"28","name_es":"Mcallen","name_en":"Mcallen","lat":"26.203407","long":"-98.230012","key":"mcallen","total":"7873"},{"id":"29","name_es":"Brownsville","name_en":"Brownsville","lat":"25.901747","long":"-97.497484","key":"brownsville","total":"3521"},{"id":"30","name_es":"Kansas City","name_en":"Kansas City","lat":"39.099727","long":"-94.578567","key":"kansas_city","total":"7934"},{"id":"31","name_es":"Orlando","name_en":"Orlando","lat":"28.538335","long":"-81.379236","key":"orlando","total":"13014"},{"id":"32","name_es":"Miami","name_en":"Miami","lat":"25.788969","long":"-80.226439","key":"miami","total":"12839"},{"id":"33","name_es":"Raleigh","name_en":"Raleigh","lat":"35.77959","long":"-78.638179","key":"raleigh","total":"24734"},{"id":"34","name_es":"Atlanta","name_en":"Atlanta","lat":"33.748995","long":"-84.387982","key":"atlanta","total":"36209"},{"id":"35","name_es":"Indianapolis","name_en":"Indianapolis","lat":"39.768403","long":"-86.158068","key":"indianapolis","total":"18684"},{"id":"36","name_es":"Washington","name_en":"Washington","lat":"38.907231","long":"-77.036464","key":"washington","total":"10397"},{"id":"37","name_es":"Filadelfia","name_en":"Philadelphia","lat":"39.952335","long":"-75.163789","key":"philadelphia","total":"8094"},{"id":"38","name_es":"Nueva York","name_en":"New York","lat":"40.714353","long":"-74.005973","key":"new_york","total":"18998"},{"id":"39","name_es":"Boston","name_en":"Boston","lat":"42.358431","long":"-71.059773","key":"boston","total":"1013"},{"id":"40","name_es":"Detroit","name_en":"Detroit","lat":"42.331427","long":"-83.045754","key":"detroit","total":"5462"},{"id":"41","name_es":"Chicago","name_en":"Chicago","lat":"41.878114","long":"-87.629798","key":"chicago","total":"92078"},{"id":"42","name_es":"Omaha","name_en":"Omaha","lat":"41.252363","long":"-95.997988","key":"omaha","total":"8418"},{"id":"43","name_es":"Saint Paul","name_en":"Saint Paul","lat":"44.953703","long":"-93.089958","key":"saint_paul","total":"8365"},{"id":"44","name_es":"Salt Lake City","name_en":"Salt Lake City","lat":"40.760779","long":"-111.891047","key":"salt_lake_city","total":"14526"},{"id":"45","name_es":"Portland","name_en":"Portland","lat":"45.523452","long":"-122.676207","key":"portland","total":"20450"},{"id":"46","name_es":"Seattle","name_en":"Seattle","lat":"47.606209","long":"-122.332071","key":"seattle","total":"16945"}]
